IRIDIUM 119             
1 42959U 17061E   24152.46398925  .00000140  00000+0  42856-4 0  9997
2 42959  86.3961 337.3094 0001857  84.5637 275.5771 14.34217268347788
IRIDIUM 107             
1 42960U 17061F   24153.04116918  .00000109  00000+0  31929-4 0  9998
2 42960  86.3963 337.0850 0001845  90.7157 269.4250 14.34217264347883
IRIDIUM 132             
1 42961U 17061G   24152.90798510  .00000122  00000+0  36397-4 0  9996
2 42961  86.3961 337.1248 0001947 100.5042 259.6373 14.34212945347855
IRIDIUM 136             
1 42962U 17061H   24153.00946408  .00000148  00000+0  45696-4 0  9990
2 42962  86.3962 337.0861 0001969  80.9065 279.2353 14.34215793347880
IRIDIUM 139             
1 42963U 17061J   24152.94602931  .00000133  00000+0  40280-4 0  9991
2 42963  86.3964 337.1624 0001793  94.5772 265.5628 14.34215992347886
IRIDIUM 125             
1 42964U 17061K   24152.93334727  .00000133  00000+0  40372-4 0  9998
2 42964  86.3965 337.2152 0001710  82.8411 277.2980 14.34216712347897
IRIDIUM 135             
1 43070U 17083A   24152.83772241  .00000040  00000+0  72268-5 0  9994
2 43070  86.3955 273.9025 0002552  99.1739 260.9745 14.34218695337179
IRIDIUM 138             
1 43071U 17083B   24152.86309408  .00000410  00000+0  13923-3 0  9991
2 43071  86.3943 273.6108 0001998  86.4379 273.7045 14.34217350337169
